CHUANGXIN 1-02 (CX-1-02)
1 33434U 08056B   26157.94305596  .00000009  00000+0  20399-4 0  9993
2 33434  98.6136 184.3120 0014341 165.5008 194.6588 14.30150740917158
STARS (KUKAI)           
1 33498U 09002G   26157.64900231  .00004615  00000+0  42025-3 0  9995
2 33498  98.1540 104.5282 0007969 195.4498 164.6480 14.95675111936905
KKS-1 (KISEKI)          
1 33499U 09002H   26157.79925389  .00001481  00000+0  18860-3 0  9991
2 33499  98.1193  80.0770 0007192 334.4433  25.6423 14.83097275934651
UK-DMC 2                
1 35683U 09041C   26157.92163097  .00000630  00000+0  98675-4 0  9994
2 35683  97.8828 293.1397 0001340  71.0441 289.0914 14.76013483905057
OCEANSAT-2              
1 35931U 09051A   26157.90559633  .00000140  00000+0  12163-3 0  9997
2 35931  98.2323 145.7827 0014585 267.5908  92.3589 13.99663548877893
SWISSCUBE               
1 35932U 09051B   26156.46919883  .00001141  00000+0  23506-3 0  9990
2 35932  98.4043  64.1532 0005430 246.3597 113.7034 14.62458715887444
BEESAT-1                
1 35933U 09051C   26157.97853478  .00000904  00000+0  19130-3 0  9999
2 35933  98.3972  65.3456 0003893 257.6051 102.4714 14.61704086887695
ITUPSAT1                
1 35935U 09051E   26155.69953963  .00000958  00000+0  20796-3 0  9997
2 35935  98.4056  62.2366 0006134 280.9538  79.0971 14.60421767886916
DMSP 5D-3 F18 (USA 210) 
1 35951U 09057A   26157.95795572  .00000249  00000+0  15209-3 0  9998
2 35951  98.9033 138.7496 0009886 282.0891  77.9175 14.14891058858149
PROBA-2                 
1 36037U 09059B   26157.78657710  .00000207  00000+0  58854-4 0  9996
2 36037  98.2451 341.2838 0012323 317.2726  42.7512 14.54857997880015
YAOGAN-7                
1 36110U 09069A   26157.66303290  .00000535  00000+0  81101-4 0  9992
2 36110  98.0084  43.5945 0025979  74.1214 286.2857 14.77999154888078
XIWANG-1 (HOPE-1)       
1 36122U 09072B   26157.90800113  .00000272  00000+0  82931-3 0  9991
2 36122 100.4028 111.9048 0006769 257.5510 102.4846 13.16440458791657
COSMOS 2463             
1 36519U 10017A   26157.52996819  .00000069  00000+0  59470-4 0  9996
2 36519  82.9609 257.5353 0036786 157.6992 213.3326 13.71665075806475
CARTOSAT-2B             
1 36795U 10035A   26157.91848403  .00001016  00000+0  14569-3 0  9992
2 36795  97.9953 208.5333 0010364 219.1509 140.8953 14.78649633858337
TISAT 1                 
1 36799U 10035E   26157.66327347  .00026497  00000+0  87699-3 0  9991
2 36799  98.0706 103.2819 0000106  46.3405 313.7844 15.31307713866099
YAOGAN-10               
1 36834U 10038A   26157.92008399  .00002139  00000+0  25518-3 0  9995
2 36834  97.8979 181.4065 0001705  88.3358  29.8072 14.85318783855686
SHIJIAN-6 04B (SJ-6 04B)
1 37180U 10051B   26157.94537432  .00000928  00000+0  80985-4 0  9996
2 37180  97.8684 163.2515 0009404 346.2698  13.8267 14.99290997854149
FENGYUN 3B              
1 37214U 10059A   26157.91149619  .00000307  00000+0  18200-3 0  9996
2 37214  98.9619 203.8822 0021409 213.7876 224.4795 14.14839922805971
COSMO-SKYMED 4          
1 37216U 10060A   26157.91209009  .00000093  00000+0  18295-4 0  9997
2 37216  97.8887 341.6606 0001418  82.1640 277.9734 14.82159958843049
O/OREOS (USA 219)       
1 37224U 10062C   26156.87810413  .00002979  00000+0  28689-3 0  9991
2 37224  71.9702 105.9546 0012370  87.8701 272.3886 14.93695134114951
RESOURCESAT-2           
1 37387U 11015A   26157.88352296  .00000086  00000+0  59492-4 0  9996
2 37387  98.7645 225.3961 0010146 288.7944  71.2133 14.21604277784719
YOUTHSAT                
1 37388U 11015B   26157.72073584  .00000214  00000+0  10762-3 0  9999
2 37388  98.3677 132.2471 0014895  17.5863 155.8429 14.25626010786145
APRIZESAT 6             
1 37793U 11044F   26156.51628799  .00000814  00000+0  12180-3 0  9993
2 37793  98.2372  66.7773 0044238 122.3000  58.2477 14.76898404795428
JUGNU                   
1 37839U 11058B   26157.30783240  .00000452  00000+0  96537-4 0  9997
2 37839  19.9622  14.5210 0018503 316.3264 216.4094 14.13773989757485
SRMSAT                  
1 37841U 11058D   26157.27188351  .00000385  00000+0  65061-4 0  9991
2 37841  19.9704 125.5359 0011947  84.3565  18.6414 14.11573396756279
